NORAD_CAT_ID,OBJECT_NAME,OBJECT_TYPE,EPOCH,MEAN_MOTION,ECCENTRICITY,INCLINATION,RA_OF_ASC_NODE,ARG_OF_PERICENTER,MEAN_ANOMALY,BSTAR,MEAN_MOTION_DOT,MEAN_MOTION_DDOT,TLE_LINE0,TLE_LINE1,TLE_LINE2,SEMIMAJOR_AXIS,PERIOD,APOGEE,PERIGEE,DECAYED
44767,STARLINK-1062,PAYLOAD,2021-11-12 14:33:56,15.06405953,0.0001321,53.0535,110.904,94.2554,265.8585,8.0779e-05,9.22e-06,0.0,0 STARLINK-1062,1 44767U 19074BG  21316.60690418  .00000922  00000-0  80779-4 0  9994,2 44767  53.0535 110.9040 0001321  94.2554 265.8585 15.06405953110348,6925.33,95.592,548.11,546.28,0.0
44767,STARLINK-1062,PAYLOAD,2021-11-12 17:45:01,15.06406138,0.0001322,53.0535,110.3083,94.1493,265.9648,7.9743e-05,9.07e-06,0.0,0 STARLINK-1062,1 44767U 19074BG  21316.73959710  .00000907  00000-0  79743-4 0  9993,2 44767  53.0535 110.3083 0001322  94.1493 265.9648 15.06406138110360,6925.33,95.592,548.11,546.279,0.0
44767,STARLINK-1062,PAYLOAD,2021-11-13 03:18:16,15.06395647,0.0001358,53.0536,108.521,96.0554,264.059,-2.6336e-05,-6.74e-06,0.0,0 STARLINK-1062,1 44767U 19074BG  21317.13768692 -.00000674  00000-0 -26336-4 0  9998,2 44767  53.0536 108.5210 0001358  96.0554 264.0590 15.06395647110593,6925.361999999999,95.592,548.1669999999998,546.286,0.0
44767,STARLINK-1062,PAYLOAD,2021-11-13 12:51:30,15.06393275,0.0001254,53.0536,106.734,97.6462,262.467,-6.0216e-05,-1.178e-05,0.0,0 STARLINK-1062,1 44767U 19074BG  21317.53577009 -.00001178  00000-0 -60216-4 0  9997,2 44767  53.0536 106.7340 0001254  97.6462 262.4670 15.06393275110481,6925.369000000002,95.593,548.1030000000002,546.366,0.0
44767,STARLINK-1062,PAYLOAD,2021-11-13 17:38:07,15.06393838,0.0001224,53.0537,105.8405,95.6483,264.4645,-5.4167e-05,-1.088e-05,0.0,0 STARLINK-1062,1 44767U 19074BG  21317.73481036 -.00001088  00000-0 -54167-4 0  9991,2 44767  53.0537 105.8405 0001224  95.6483 264.4645 15.06393838110515,6925.3669999999975,95.593,548.08,546.385,0.0
44767,STARLINK-1062,PAYLOAD,2021-11-14 11:09:03,15.06395252,0.0001190999999999,53.0538,102.5642,95.9753,264.1372,-4.4915e-05,-9.5e-06,0.0,0 STARLINK-1062,1 44767U 19074BG  21318.46462491 -.00000950  00000-0 -44915-4 0  9993,2 44767  53.0538 102.5642 0001191  95.9753 264.1372 15.06395252110795,6925.363,95.592,548.053,546.403,0.0
44767,STARLINK-1062,PAYLOAD,2021-11-14 12:44:35,15.06395282,0.0001196,53.0538,102.2663,96.557,263.5555,-4.4211e-05,-9.4e-06,0.0,0 STARLINK-1062,1 44767U 19074BG  21318.53097169 -.00000940  00000-0 -44211-4 0  9995,2 44767  53.0538 102.2663 0001196  96.5570 263.5555 15.06395282110636,6925.363,95.592,548.056,546.4,0.0
44767,STARLINK-1062,PAYLOAD,2021-11-15 14:13:13,15.06392969,0.0001097,53.0541,97.5008,95.4783,264.6331,7.7084e-05,8.67e-06,0.0,0 STARLINK-1062,1 44767U 19074BG  21319.59252095  .00000867  00000-0  77084-4 0  9993,2 44767  53.0541  97.5008 0001097  95.4783 264.6331 15.06392969110793,6925.37,95.593,547.995,546.475,0.0
44767,STARLINK-1062,PAYLOAD,2021-11-15 15:48:46,15.06393475,0.0001091,53.0541,97.2028,96.7346,263.3767,8.0918e-05,9.24e-06,0.0,0 STARLINK-1062,1 44767U 19074BG  21319.65886750  .00000924  00000-0  80918-4 0  9995,2 44767  53.0541  97.2028 0001091  96.7346 263.3767 15.06393475110977,6925.369000000002,95.593,547.989,546.4780000000002,0.0
44767,STARLINK-1062,PAYLOAD,2021-11-16 14:06:19,15.06399506,0.0001038,53.0543,93.0331,95.9081,264.2026,8.510200000000001e-05,9.86e-06,0.0,0 STARLINK-1062,1 44767U 19074BG  21320.58772006  .00000986  00000-0  85102-4 0  9995,2 44767  53.0543  93.0331 0001038  95.9081 264.2026 15.06399506110944,6925.35,95.592,547.934,546.496,0.0
44767,STARLINK-1062,PAYLOAD,2021-11-16 15:41:51,15.06400177,0.0001036,53.0543,92.7353,95.2564,264.8543,9.0342e-05,1.065e-05,0.0,0 STARLINK-1062,1 44767U 19074BG  21320.65406631  .00001065  00000-0  90342-4 0  9992,2 44767  53.0543  92.7353 0001036  95.2564 264.8543 15.06400177110959,6925.348000000001,95.592,547.93,546.496,0.0
44767,STARLINK-1062,PAYLOAD,2021-11-17 09:12:46,15.06405713,9.990000000000004e-05,53.0544,89.4592,93.8083,266.3021,9.2163e-05,1.092e-05,0.0,0 STARLINK-1062,1 44767U 19074BG  21321.38387554  .00001092  00000-0  92163-4 0  9998,2 44767  53.0544  89.4592 0000999  93.8083 266.3021 15.06405713111067,6925.331,95.592,547.888,546.504,0.0
44767,STARLINK-1062,PAYLOAD,2021-11-17 15:34:56,15.06408029,9.82e-05,53.0544,88.2677,93.0627,267.0474,0.00010835,1.333e-05,0.0,0 STARLINK-1062,1 44767U 19074BG  21321.64925951  .00001333  00000-0  10835-3 0  9999,2 44767  53.0544  88.2677 0000982  93.0627 267.0474 15.06408029111272,6925.324000000001,95.592,547.869,546.509,0.0
44767,STARLINK-1062,PAYLOAD,2021-11-18 01:08:11,15.06396415,9.44e-05,53.0544,86.4806,90.1632,269.9465,-1.7337e-05,-5.39e-06,0.0,0 STARLINK-1062,1 44767U 19074BG  21322.04735062 -.00000539  00000-0 -17337-4 0  9990,2 44767  53.0544  86.4806 0000944  90.1632 269.9465 15.06396415111331,6925.36,95.592,547.878,546.571,0.0
44767,STARLINK-1062,PAYLOAD,2021-11-18 12:16:57,15.06398624,9.85e-05,53.0546,84.3961,89.7036,270.4066,-1.9921e-05,-5.78e-06,0.0,0 STARLINK-1062,1 44767U 19074BG  21322.51177713 -.00000578  00000-0 -19921-4 0  9999,2 44767  53.0546  84.3961 0000985  89.7036 270.4066 15.06398624111236,6925.353,95.592,547.9,546.536,0.0
44767,STARLINK-1062,PAYLOAD,2021-11-18 15:28:02,15.063987,9.87e-05,53.0545,83.8002,89.4552,270.655,-1.8724e-05,-5.6e-06,0.0,0 STARLINK-1062,1 44767U 19074BG  21322.64447062 -.00000560  00000-0 -18724-4 0  9991,2 44767  53.0545  83.8002 0000987  89.4552 270.6550 15.06398700111254,6925.353,95.592,547.901,546.534,0.0
44767,STARLINK-1062,PAYLOAD,2021-11-19 04:12:20,15.06401973,9.63e-05,53.0545,81.4175,86.2993,273.8106,-2.8519000000000013e-05,-7.06e-06,0.0,0 STARLINK-1062,1 44767U 19074BG  21323.17524269 -.00000706  00000-0 -28519-4 0  9990,2 44767  53.0545  81.4175 0000963  86.2993 273.8106 15.06401973111504,6925.343000000003,95.592,547.874,546.5409999999998,0.0
44767,STARLINK-1062,PAYLOAD,2021-11-19 10:34:30,15.06402931,9.57e-05,53.0545,80.2258,87.2931,272.8167,-2.1564e-05,-6.02e-06,0.0,0 STARLINK-1062,1 44767U 19074BG  21323.44062828 -.00000602  00000-0 -21564-4 0  9996,2 44767  53.0545  80.2258 0000957  87.2931 272.8167 15.06402931111375,6925.34,95.592,547.867,546.5419999999998,0.0
44767,STARLINK-1062,PAYLOAD,2021-11-20 10:27:36,15.06387717,0.000104,53.0546,75.7584,83.1041,277.0066,-1.9893e-05,-5.77e-06,0.0,0 STARLINK-1062,1 44767U 19074BG  21324.43583806 -.00000577  00000-0 -19893-4 0  9993,2 44767  53.0546  75.7584 0001040  83.1041 277.0066 15.06387717111692,6925.386,95.593,547.971,546.531,0.0
44767,STARLINK-1062,PAYLOAD,2021-11-20 13:38:41,15.06387847,0.0001013,53.0547,75.1625,89.8636,270.2469,-1.9659e-05,-5.74e-06,0.0,0 STARLINK-1062,1 44767U 19074BG  21324.56853199 -.00000574  00000-0 -19659-4 0  9999,2 44767  53.0547  75.1625 0001013  89.8636 270.2469 15.06387847111546,6925.386,95.593,547.952,546.549,0.0
44767,STARLINK-1062,PAYLOAD,2021-11-21 10:20:41,15.06393931,0.0001028,53.0547,71.2906,86.3164,273.7942,-1.3563e-05,-4.83e-06,0.0,0 STARLINK-1062,1 44767U 19074BG  21325.43103955 -.00000483  00000-0 -13563-4 0  9991,2 44767  53.0547  71.2906 0001028  86.3164 273.7942 15.06393931111847,6925.3669999999975,95.593,547.944,546.52,0.0
44767,STARLINK-1062,PAYLOAD,2021-11-21 13:31:46,15.06394866,0.0001016,53.0547,70.6948,86.5578,273.5527,-1.1352e-07,-2.83e-06,0.0,0 STARLINK-1062,1 44767U 19074BG  21325.56373247 -.00000283  00000-0 -11352-6 0  9992,2 44767  53.0547  70.6948 0001016  86.5578 273.5527 15.06394866111692,6925.364000000001,95.592,547.933,546.526,0.0
44767,STARLINK-1062,PAYLOAD,2021-11-22 08:38:14,15.06400063,0.0001007,53.0548,67.1207,84.5844,275.5259,8.7525e-06,-1.51e-06,0.0,0 STARLINK-1062,1 44767U 19074BG  21326.35989126 -.00000151  00000-0  87525-5 0  9996,2 44767  53.0548  67.1207 0001007  84.5844 275.5259 15.06400063111989,6925.348000000001,95.592,547.911,546.516,0.0
44767,STARLINK-1062,PAYLOAD,2021-11-22 13:24:51,15.06401547,9.97e-05,53.0549,66.2271,84.8242,275.286,2.5269e-05,9.5e-07,0.0,0 STARLINK-1062,1 44767U 19074BG  21326.55893008  .00000095  00000-0  25269-4 0  9993,2 44767  53.0549  66.2271 0000997  84.8242 275.2860 15.06401547111841,6925.344,95.592,547.899,546.518,0.0
44767,STARLINK-1062,PAYLOAD,2021-11-23 08:31:20,15.06393937,0.0001014,53.055,62.6531,83.0986,277.0118,4.8786e-05,4.45e-06,0.0,0 STARLINK-1062,1 44767U 19074BG  21327.35509681  .00000445  00000-0  48786-4 0  9991,2 44767  53.0550  62.6531 0001014  83.0986 277.0118 15.06393937112131,6925.3669999999975,95.593,547.934,546.53,0.0
44767,STARLINK-1062,PAYLOAD,2021-11-23 13:17:57,15.06390005,0.0001039,53.055,61.7597,82.3932,277.7175,1.1878e-05,-1.04e-06,0.0,0 STARLINK-1062,1 44767U 19074BG  21327.55414164 -.00000104  00000-0  11878-4 0  9999,2 44767  53.0550  61.7597 0001039  82.3932 277.7175 15.06390005111999,6925.379,95.593,547.964,546.525,0.0
44767,STARLINK-1062,PAYLOAD,2021-11-24 08:24:26,15.06394978,0.0001041,53.0551,58.1856,80.4706,279.64,-3.1113e-06,-3.28e-06,0.0,0 STARLINK-1062,1 44767U 19074BG  21328.35030333 -.00000328  00000-0 -31113-5 0  9994,2 44767  53.0551  58.1856 0001041  80.4706 279.6400 15.06394978112119,6925.364000000001,95.592,547.95,546.508,0.0
44767,STARLINK-1062,PAYLOAD,2021-11-25 01:55:21,15.06397439,0.0001106,53.055,54.9093,81.3533,278.7581,5.155600000000001e-05,4.87e-06,0.0,0 STARLINK-1062,1 44767U 19074BG  21329.08011500  .00000487  00000-0  51556-4 0  9996,2 44767  53.0550  54.9093 0001106  81.3533 278.7581 15.06397439112390,6925.356,95.592,547.987,546.455,0.0
44767,STARLINK-1062,PAYLOAD,2021-11-25 08:17:31,15.06398261,0.0001105,53.0549,53.7178,81.3491,278.7623,5.656600000000003e-05,5.61e-06,0.0,0 STARLINK-1062,1 44767U 19074BG  21329.34550194  .00000561  00000-0  56566-4 0  9991,2 44767  53.0549  53.7178 0001105  81.3491 278.7623 15.06398261112268,6925.354,95.592,547.984,546.4540000000002,0.0
